GPS BIIA-23 (PRN 18)    
1 22877U 93068A   19062.53456566 -.00000015  00000-0  00000+0 0  9996
2 22877  54.6106  72.8714 0148284  78.6662  26.1920  2.00557350185754
GPS BIIR-2  (PRN 13)    
1 24876U 97035A   19062.28699848 -.00000016  00000-0  00000+0 0  9990
2 24876  55.4673 202.6108 0034705  77.0998 283.2420  2.00564604158346
GPS BIIR-3  (PRN 11)    
1 25933U 99055A   19062.17916318 -.00000054  00000-0  00000+0 0  9993
2 25933  52.0622  50.4252 0163046 107.1430 102.4154  2.00561442142159
GPS BIIR-4  (PRN 20)    
1 26360U 00025A   19062.31511479 -.00000025  00000-0  00000+0 0  9990
2 26360  53.2907 128.8534 0042245 133.6303 220.4268  2.00562987137859
GPS BIIR-5  (PRN 28)    
1 26407U 00040A   19061.22615927 -.00000060  00000-0  00000+0 0  9990
2 26407  56.3274 320.7879 0194940 275.6113 346.8992  2.00560911136517
GPS BIIR-6  (PRN 14)    
1 26605U 00071A   19062.53309271 -.00000020  00000-0  00000+0 0  9997
2 26605  55.0412 200.0910 0104397 248.8123 148.5414  2.00563099134135
GPS BIIR-8  (PRN 16)    
1 27663U 03005A   19062.03227475 -.00000054  00000-0  00000+0 0  9999
2 27663  56.3882 320.5264 0105183  30.3040 211.1973  2.00551222117897
GPS BIIR-9  (PRN 21)    
1 27704U 03010A   19062.51995244 -.00000017  00000-0  00000+0 0  9999
2 27704  54.2845  72.3751 0249658 275.7165 287.3644  2.00550700116698
GPS BIIR-10 (PRN 22)    
1 28129U 03058A   19061.48192712 -.00000038  00000-0  00000-0 0  9991
2 28129  53.1026 131.6937 0074510 278.9771  80.2327  2.00575795111363
GPS BIIR-11 (PRN 19)    
1 28190U 04009A   19061.73081062 -.00000088  00000-0  00000-0 0  9994
2 28190  56.2500  21.3239 0091958  77.0436 101.6699  2.00569905109568
GPS BIIR-12 (PRN 23)    
1 28361U 04023A   19062.60017997 -.00000028  00000-0  00000+0 0  9996
2 28361  54.0517 194.5649 0130524 229.3260 129.5693  2.00568254107657
GPS BIIR-13 (PRN 02)    
1 28474U 04045A   19062.32903830 -.00000016  00000-0  00000+0 0  9991
2 28474  54.6452  72.0954 0191146 258.8776 268.2150  2.00565080105012
GPS BIIRM-1 (PRN 17)    
1 28874U 05038A   19062.30618337 -.00000090  00000-0  00000+0 0  9993
2 28874  56.3783  18.6417 0131855 261.6219 355.8696  2.00560807 98412
GPS BIIRM-2 (PRN 31)    
1 29486U 06042A   19061.57236179  .00000046  00000-0  00000+0 0  9997
2 29486  55.0483 257.3107 0092618 357.9807   7.6488  2.00575498 91122
GPS BIIRM-3 (PRN 12)    
1 29601U 06052A   19061.50789521 -.00000056  00000-0  00000-0 0  9997
2 29601  56.3675 319.4632 0073116  58.7061 302.0529  2.00562160 89982
GPS BIIRM-4 (PRN 15)    
1 32260U 07047A   19062.31833998 -.00000033  00000-0  00000+0 0  9999
2 32260  53.1747 190.3623 0110851  43.0504 317.7683  2.00566222 83425
GPS BIIRM-5 (PRN 29)    
1 32384U 07062A   19061.87965994 -.00000090  00000-0  00000-0 0  9999
2 32384  56.4598  19.2889 0005200  79.7080 101.7062  2.00577843 82131
GPS BIIRM-6 (PRN 07)    
1 32711U 08012A   19061.72710604  .00000044  00000-0  00000+0 0  9996
2 32711  54.7863 256.5195 0124109 218.8868 140.2349  2.00571329 80336
GPS BIIRM-8 (PRN 05)    
1 35752U 09043A   19062.18685354 -.00000029  00000-0  00000+0 0  9997
2 35752  54.3914 134.1994 0054003  38.8937 318.8041  2.00567572 69926
GPS BIIF-1  (PRN 25)    
1 36585U 10022A   19061.90086236 -.00000046  00000-0  00000-0 0  9994
2 36585  55.6493 315.8237 0081009  48.4562 207.7412  2.00555343 64175
GPS BIIF-2  (PRN 01)    
1 37753U 11036A   19061.64843306 -.00000011  00000-0  00000-0 0  9990
2 37753  55.8415  75.9591 0083031  37.8278 120.8943  2.00565752 55853
GPS BIIF-3  (PRN 24)    
1 38833U 12053A   19062.41043410  .00000036  00000-0  00000+0 0  9999
2 38833  53.8200 252.7960 0080912  32.9753 327.5401  2.00557099 46925
GPS BIIF-4  (PRN 27)    
1 39166U 13023A   19062.27301543 -.00000094  00000-0  00000+0 0  9990
2 39166  56.0647  15.4542 0066887  23.2844 337.0039  2.00568512 42464
GPS BIIF-5  (PRN 30)    
1 39533U 14008A   19061.77054905  .00000040  00000-0  00000+0 0  9993
2 39533  53.9548 258.2055 0037419 190.2819 169.6651  2.00569594 36812
GPS BIIF-6  (PRN 06)    
1 39741U 14026A   19062.05818460 -.00000010  00000-0  00000+0 0  9998
2 39741  55.8227  75.4681 0018049 289.7421  70.1147  2.00579746 35100
GPS BIIF-7  (PRN 09)    
1 40105U 14045A   19062.14346650 -.00000027  00000-0  00000+0 0  9990
2 40105  54.5781 194.8292 0012003 100.7054 259.3865  2.00557311 33558
GPS BIIF-8  (PRN 03)    
1 40294U 14068A   19058.02276494 -.00000052  00000-0  00000+0 0  9992
2 40294  55.1420 135.8360 0017802  29.2116 330.9281  2.00575355 31690
GPS BIIF-9  (PRN 26)    
1 40534U 15013A   19062.15711371 -.00000043  00000-0  00000+0 0  9997
2 40534  54.5804 314.2662 0036569   3.2832 356.7938  2.00576604 28848
GPS BIIF-10  (PRN 08)   
1 40730U 15033A   19062.30967458 -.00000095  00000-0  00000+0 0  9990
2 40730  55.5912  14.8408 0043981 338.5503  21.2541  2.00560579 26603
GPS BIIF-11  (PRN 10)   
1 41019U 15062A   19058.37262645 -.00000054  00000-0  00000+0 0  9996
2 41019  55.1444 135.6339 0044593 205.6713 154.1469  2.00564644 24343
GPS BIIF-12  (PRN 32)   
1 41328U 16007A   19062.45645367 -.00000026  00000-0  00000+0 0  9998
2 41328  54.8237 195.1776 0027849 214.9607 144.8130  2.00553247 22489
